CCSDS_OMM_VERS = 2.0
CREATION_DATE  = 
ORIGINATOR     = 

OBJECT_NAME    = DELTA 2 R/B(1)
OBJECT_ID      = 1990-008B
CENTER_NAME    = EARTH
REF_FRAME      = TEME
TIME_SYSTEM    = UTC
MEAN_ELEMENT_THEORY = SGP/SGP4

EPOCH          = 2026-02-18T01:02:57.952320
MEAN_MOTION    = 15.53201827
ECCENTRICITY   = .0089803
INCLINATION    = 35.6044
RA_OF_ASC_NODE = 303.5081
ARG_OF_PERICENTER = 75.1977
MEAN_ANOMALY   = 285.8687

EPHEMERIS_TYPE = 0
CLASSIFICATION_TYPE = U
NORAD_CAT_ID   = 20453
ELEMENT_SET_NO = 999
REV_AT_EPOCH   = 92307
BSTAR          = .79809138E-3
MEAN_MOTION_DOT = .6218E-3
MEAN_MOTION_DDOT = 0

CCSDS_OMM_VERS = 2.0
CREATION_DATE  = 
ORIGINATOR     = 

OBJECT_NAME    = COSMOS 2058
OBJECT_ID      = 1990-010A
CENTER_NAME    = EARTH
REF_FRAME      = TEME
TIME_SYSTEM    = UTC
MEAN_ELEMENT_THEORY = SGP/SGP4

EPOCH          = 2026-02-18T02:45:53.056224
MEAN_MOTION    = 15.11135696
ECCENTRICITY   = .00110172
INCLINATION    = 82.4656
RA_OF_ASC_NODE = 66.7116
ARG_OF_PERICENTER = 49.7360
MEAN_ANOMALY   = 310.4832

EPHEMERIS_TYPE = 0
CLASSIFICATION_TYPE = U
NORAD_CAT_ID   = 20465
ELEMENT_SET_NO = 999
REV_AT_EPOCH   = 93928
BSTAR          = .242552E-3
MEAN_MOTION_DOT = .4098E-4
MEAN_MOTION_DDOT = 0

CCSDS_OMM_VERS = 2.0
CREATION_DATE  = 
ORIGINATOR     = 

OBJECT_NAME    = SL-14 R/B
OBJECT_ID      = 1990-010B
CENTER_NAME    = EARTH
REF_FRAME      = TEME
TIME_SYSTEM    = UTC
MEAN_ELEMENT_THEORY = SGP/SGP4

EPOCH          = 2026-02-18T03:03:17.590752
MEAN_MOTION    = 14.83551548
ECCENTRICITY   = .00200545
INCLINATION    = 82.5012
RA_OF_ASC_NODE = 285.7668
ARG_OF_PERICENTER = 8.8466
MEAN_ANOMALY   = 351.3098

EPHEMERIS_TYPE = 0
CLASSIFICATION_TYPE = U
NORAD_CAT_ID   = 20466
ELEMENT_SET_NO = 999
REV_AT_EPOCH   = 92558
BSTAR          = .46265973E-4
MEAN_MOTION_DOT = .406E-5
MEAN_MOTION_DDOT = 0

CCSDS_OMM_VERS = 2.0
CREATION_DATE  = 
ORIGINATOR     = 

OBJECT_NAME    = SL-14 R/B
OBJECT_ID      = 1990-018B
CENTER_NAME    = EARTH
REF_FRAME      = TEME
TIME_SYSTEM    = UTC
MEAN_ELEMENT_THEORY = SGP/SGP4

EPOCH          = 2026-02-18T01:24:34.816320
MEAN_MOTION    = 14.82122515
ECCENTRICITY   = .00169609
INCLINATION    = 82.5178
RA_OF_ASC_NODE = 241.4415
ARG_OF_PERICENTER = 152.2545
MEAN_ANOMALY   = 207.9578

EPHEMERIS_TYPE = 0
CLASSIFICATION_TYPE = U
NORAD_CAT_ID   = 20511
ELEMENT_SET_NO = 999
REV_AT_EPOCH   = 91967
BSTAR          = .49950445E-4
MEAN_MOTION_DOT = .422E-5
MEAN_MOTION_DDOT = 0

CCSDS_OMM_VERS = 2.0
CREATION_DATE  = 
ORIGINATOR     = 

OBJECT_NAME    = HST
OBJECT_ID      = 1990-037B
CENTER_NAME    = EARTH
REF_FRAME      = TEME
TIME_SYSTEM    = UTC
MEAN_ELEMENT_THEORY = SGP/SGP4

EPOCH          = 2026-02-17T15:32:42.526752
MEAN_MOTION    = 15.29149182
ECCENTRICITY   = .00011263
INCLINATION    = 28.4680
RA_OF_ASC_NODE = 176.6860
ARG_OF_PERICENTER = 244.7281
MEAN_ANOMALY   = 115.3198

EPHEMERIS_TYPE = 0
CLASSIFICATION_TYPE = U
NORAD_CAT_ID   = 20580
ELEMENT_SET_NO = 999
REV_AT_EPOCH   = 77024
BSTAR          = .23066996E-3
MEAN_MOTION_DOT = .6944E-4
MEAN_MOTION_DDOT = 0

CCSDS_OMM_VERS = 2.0
CREATION_DATE  = 
ORIGINATOR     = 

OBJECT_NAME    = SL-16 R/B
OBJECT_ID      = 1990-046B
CENTER_NAME    = EARTH
REF_FRAME      = TEME
TIME_SYSTEM    = UTC
MEAN_ELEMENT_THEORY = SGP/SGP4

EPOCH          = 2026-02-18T06:10:02.526816
MEAN_MOTION    = 14.15012657
ECCENTRICITY   = .0015347
INCLINATION    = 71.0017
RA_OF_ASC_NODE = 338.7246
ARG_OF_PERICENTER = 326.6878
MEAN_ANOMALY   = 33.3277

EPHEMERIS_TYPE = 0
CLASSIFICATION_TYPE = U
NORAD_CAT_ID   = 20625
ELEMENT_SET_NO = 999
REV_AT_EPOCH   = 84564
BSTAR          = .16999744E-3
MEAN_MOTION_DOT = .282E-5
MEAN_MOTION_DDOT = 0

CCSDS_OMM_VERS = 2.0
CREATION_DATE  = 
ORIGINATOR     = 

OBJECT_NAME    = COSMOS 2084
OBJECT_ID      = 1990-055A
CENTER_NAME    = EARTH
REF_FRAME      = TEME
TIME_SYSTEM    = UTC
MEAN_ELEMENT_THEORY = SGP/SGP4

EPOCH          = 2026-02-18T06:16:44.360256
MEAN_MOTION    = 15.05518206
ECCENTRICITY   = .0020089
INCLINATION    = 62.7900
RA_OF_ASC_NODE = 41.8319
ARG_OF_PERICENTER = 185.7306
MEAN_ANOMALY   = 174.3568

EPHEMERIS_TYPE = 0
CLASSIFICATION_TYPE = U
NORAD_CAT_ID   = 20663
ELEMENT_SET_NO = 999
REV_AT_EPOCH   = 93339
BSTAR          = .20187506E-3
MEAN_MOTION_DOT = .2728E-4
MEAN_MOTION_DDOT = 0

CCSDS_OMM_VERS = 2.0
CREATION_DATE  = 
ORIGINATOR     = 

OBJECT_NAME    = SL-6 R/B(2)
OBJECT_ID      = 1990-055D
CENTER_NAME    = EARTH
REF_FRAME      = TEME
TIME_SYSTEM    = UTC
MEAN_ELEMENT_THEORY = SGP/SGP4

EPOCH          = 2026-02-18T03:38:02.232672
MEAN_MOTION    = 15.03495190
ECCENTRICITY   = .0021848
INCLINATION    = 62.7844
RA_OF_ASC_NODE = 320.2894
ARG_OF_PERICENTER = 341.9943
MEAN_ANOMALY   = 18.0380

EPHEMERIS_TYPE = 0
CLASSIFICATION_TYPE = U
NORAD_CAT_ID   = 20666
ELEMENT_SET_NO = 999
REV_AT_EPOCH   = 93525
BSTAR          = .1823813E-3
MEAN_MOTION_DOT = .231E-4
MEAN_MOTION_DDOT = 0

CCSDS_OMM_VERS = 2.0
CREATION_DATE  = 
ORIGINATOR     = 

OBJECT_NAME    = SL-8 R/B
OBJECT_ID      = 1990-078B
CENTER_NAME    = EARTH
REF_FRAME      = TEME
TIME_SYSTEM    = UTC
MEAN_ELEMENT_THEORY = SGP/SGP4

EPOCH          = 2026-02-18T02:00:47.949120
MEAN_MOTION    = 14.88391082
ECCENTRICITY   = .03660596
INCLINATION    = 82.9004
RA_OF_ASC_NODE = 268.9348
ARG_OF_PERICENTER = 79.7144
MEAN_ANOMALY   = 284.5126

EPHEMERIS_TYPE = 0
CLASSIFICATION_TYPE = U
NORAD_CAT_ID   = 20775
ELEMENT_SET_NO = 999
REV_AT_EPOCH   = 80638
BSTAR          = .42004596E-3
MEAN_MOTION_DOT = .14317E-3
MEAN_MOTION_DDOT = 0

CCSDS_OMM_VERS = 2.0
CREATION_DATE  = 
ORIGINATOR     = 

OBJECT_NAME    = SL-8 R/B
OBJECT_ID      = 1991-006B
CENTER_NAME    = EARTH
REF_FRAME      = TEME
TIME_SYSTEM    = UTC
MEAN_ELEMENT_THEORY = SGP/SGP4

EPOCH          = 2026-02-18T07:04:10.534368
MEAN_MOTION    = 13.77492365
ECCENTRICITY   = .00237629
INCLINATION    = 82.9448
RA_OF_ASC_NODE = 184.4641
ARG_OF_PERICENTER = 90.1228
MEAN_ANOMALY   = 289.3208

EPHEMERIS_TYPE = 0
CLASSIFICATION_TYPE = U
NORAD_CAT_ID   = 21088
ELEMENT_SET_NO = 999
REV_AT_EPOCH   = 76140
BSTAR          = .6957492E-5
MEAN_MOTION_DOT = .22E-6
MEAN_MOTION_DDOT = 0

CCSDS_OMM_VERS = 2.0
CREATION_DATE  = 
ORIGINATOR     = 

OBJECT_NAME    = OKEAN-3
OBJECT_ID      = 1991-039A
CENTER_NAME    = EARTH
REF_FRAME      = TEME
TIME_SYSTEM    = UTC
MEAN_ELEMENT_THEORY = SGP/SGP4

EPOCH          = 2026-02-18T06:16:16.612032
MEAN_MOTION    = 15.04652544
ECCENTRICITY   = .00156931
INCLINATION    = 82.5205
RA_OF_ASC_NODE = 355.6590
ARG_OF_PERICENTER = 41.3337
MEAN_ANOMALY   = 318.9074

EPHEMERIS_TYPE = 0
CLASSIFICATION_TYPE = U
NORAD_CAT_ID   = 21397
ELEMENT_SET_NO = 999
REV_AT_EPOCH   = 86211
BSTAR          = .30740193E-3
MEAN_MOTION_DOT = .4359E-4
MEAN_MOTION_DDOT = 0

CCSDS_OMM_VERS = 2.0
CREATION_DATE  = 
ORIGINATOR     = 

OBJECT_NAME    = COSMOS 2151
OBJECT_ID      = 1991-042A
CENTER_NAME    = EARTH
REF_FRAME      = TEME
TIME_SYSTEM    = UTC
MEAN_ELEMENT_THEORY = SGP/SGP4

EPOCH          = 2026-02-18T04:55:38.007264
MEAN_MOTION    = 15.00027904
ECCENTRICITY   = .00138851
INCLINATION    = 82.4949
RA_OF_ASC_NODE = 102.4739
ARG_OF_PERICENTER = 122.1786
MEAN_ANOMALY   = 238.0787

EPHEMERIS_TYPE = 0
CLASSIFICATION_TYPE = U
NORAD_CAT_ID   = 21422
ELEMENT_SET_NO = 999
REV_AT_EPOCH   = 86027
BSTAR          = .13302338E-3
MEAN_MOTION_DOT = .1685E-4
MEAN_MOTION_DDOT = 0

